[{"OBJECT_NAME":"ION SCV-008","OBJECT_ID":"2023-001AU","EPOCH":"2026-03-09T19:46:58.662912","MEAN_MOTION":15.2722664,"ECCENTRICITY":0.00151921,"INCLINATION":97.5676,"RA_OF_ASC_NODE":163.606,"ARG_OF_PERICENTER":8.542,"MEAN_ANOMALY":351.6074,"EPHEMERIS_TYPE":0,"CLASSIFICATION_TYPE":"U","NORAD_CAT_ID":55051,"ELEMENT_SET_NO":999,"REV_AT_EPOCH":17616,"BSTAR":0.00031422806,"MEAN_MOTION_DOT":8.336e-5,"MEAN_MOTION_DDOT":0},{"OBJECT_NAME":"STARLINK-34642","OBJECT_ID":"2025-157G","EPOCH":"2026-03-09T22:13:15.218112","MEAN_MOTION":15.30225255,"ECCENTRICITY":0.00012592,"INCLINATION":53.1584,"RA_OF_ASC_NODE":344.3148,"ARG_OF_PERICENTER":105.4499,"MEAN_ANOMALY":254.6641,"EPHEMERIS_TYPE":0,"CLASSIFICATION_TYPE":"U","NORAD_CAT_ID":64910,"ELEMENT_SET_NO":999,"REV_AT_EPOCH":3616,"BSTAR":0.0014055176,"MEAN_MOTION_DOT":0.00041534,"MEAN_MOTION_DDOT":0}]
